{"type": "FeatureCollection", "features": [ {"type": "Feature", "properties": {"norad_id": 34077, "name": "IRIDIUM 33 DEB", "group": "iridium-33-debris", "lat": 34.9593255218408, "lon": 52.07256799197075, "alt_km": 668.4288298323227, "timestamp": "2025-12-17T04:57:44.746405+00:00", "meta": {"OBJECT_NAME": "IRIDIUM 33 DEB", "OBJECT_ID": "1997-051CL", "EPOCH": "2025-12-16T16:15:17.100000", "MEAN_MOTION": 14.64880875, "ECCENTRICITY": 0.00097738, "INCLINATION": 86.3859, "RA_OF_ASC_NODE": 49.7731, "ARG_OF_PERICENTER": 27.321, "MEAN_ANOMALY": 97.3185, "EPHEMERIS_TYPE": 0, "CLASSIFICATION_TYPE": "U", "NORAD_CAT_ID": 34077, "ELEMENT_SET_NO": 999, "REV_AT_EPOCH": 88390, "BSTAR": 0.00072857342, "MEAN_MOTION_DOT": 3.916e-05, "MEAN_MOTION_DDOT": 0}, "tle": {"line1": "1 34077U 97051CL  25350.67728125  .00003916  00000+0  72857-3 0  9996", "line2": "2 34077  86.3859  49.7731 0009773  27.3210  97.3185 14.64880875883906"}}, "geometry": {"type": "Point", "coordinates": [52.07256799197075, 34.9593255218408]}}, {"type": "Feature", "properties": {"norad_id": 34079, "name": "IRIDIUM 33 DEB", "group": "iridium-33-debris", "lat": -32.485873553474796, "lon": 4.319180477855054, "alt_km": 620.8529469285577, "timestamp": "2025-12-17T04:57:44.746414+00:00", "meta": {"OBJECT_NAME": "IRIDIUM 33 DEB", "OBJECT_ID": "1997-051CN", "EPOCH": "2025-12-16T22:51:10.442880", "MEAN_MOTION": 14.8363878, "ECCENTRICITY": 0.00050967, "INCLINATION": 86.3774, "RA_OF_ASC_NODE": 6.7468, "ARG_OF_PERICENTER": 353.7834, "MEAN_ANOMALY": 55.0377, "EPHEMERIS_TYPE": 0, "CLASSIFICATION_TYPE": "U", "NORAD_CAT_ID": 34079, "ELEMENT_SET_NO": 999, "REV_AT_EPOCH": 89040, "BSTAR": 0.0013326722, "MEAN_MOTION_DOT": 0.00011028, "MEAN_MOTION_DDOT": 0}, "tle": {"line1": "1 34079U 97051CN  25350.95220420  .00011028  00000+0  13327-2 0  9993", "line2": "2 34079  86.3774   6.7468 0005096 353.7834  55.0377 14.83638780890400"}}, "geometry": {"type": "Point", "coordinates": [4.319180477855054, -32.485873553474796]}}, {"type": "Feature", "properties": {"norad_id": 34088, "name": "IRIDIUM 33 DEB", "group": "iridium-33-debris", "lat": -6.015430241204775, "lon": -150.94653336826616, "alt_km": 592.9730210611815, "timestamp": "2025-12-17T04:57:44.746423+00:00", "meta": {"OBJECT_NAME": "IRIDIUM 33 DEB", "OBJECT_ID": "1997-051CX", "EPOCH": "2025-12-16T15:49:03.645408", "MEAN_MOTION": 14.91567961, "ECCENTRICITY": 0.00061162, "INCLINATION": 86.3848, "RA_OF_ASC_NODE": 28.9234, "ARG_OF_PERICENTER": 163.7337, "MEAN_ANOMALY": 323.1373, "EPHEMERIS_TYPE": 0, "CLASSIFICATION_TYPE": "U", "NORAD_CAT_ID": 34088, "ELEMENT_SET_NO": 999, "REV_AT_EPOCH": 88800, "BSTAR": 0.001784804, "MEAN_MOTION_DOT": 0.00017948, "MEAN_MOTION_DDOT": 0}, "tle": {"line1": "1 34088U 97051CX  25350.65906997  .00017948  00000+0  17848-2 0  9999", "line2": "2 34088  86.3848  28.9234 0006116 163.7337 323.1373 14.91567961888009"}}, "geometry": {"type": "Point", "coordinates": [-150.94653336826616, -6.015430241204775]}}, {"type": "Feature", "properties": {"norad_id": 34091, "name": "IRIDIUM 33 DEB", "group": "iridium-33-debris", "lat": -38.71917131286487, "lon": -112.2725263985853, "alt_km": 616.7738343785277, "timestamp": "2025-12-17T04:57:44.746433+00:00", "meta": {"OBJECT_NAME": "IRIDIUM 33 DEB", "OBJECT_ID": "1997-051DA", "EPOCH": "2025-12-16T11:46:18.543360", "MEAN_MOTION": 14.82111628, "ECCENTRICITY": 0.00334463, "INCLINATION": 86.3424, "RA_OF_ASC_NODE": 65.116, "ARG_OF_PERICENTER": 279.6174, "MEAN_ANOMALY": 80.127, "EPHEMERIS_TYPE": 0, "CLASSIFICATION_TYPE": "U", "NORAD_CAT_ID": 34091, "ELEMENT_SET_NO": 999, "REV_AT_EPOCH": 87922, "BSTAR": 0.0036492402, "MEAN_MOTION_DOT": 0.00029418, "MEAN_MOTION_DDOT": 0}, "tle": {"line1": "1 34091U 97051DA  25350.49049240  .00029418  00000+0  36492-2 0  9995", "line2": "2 34091  86.3424  65.1160 0033446 279.6174  80.1270 14.82111628879221"}}, "geometry": {"type": "Point", "coordinates": [-112.2725263985853, -38.71917131286487]}}, {"type": "Feature", "properties": {"norad_id": 34097, "name": "IRIDIUM 33 DEB", "group": "iridium-33-debris", "lat": 69.72916446053692, "lon": 9.80256724862992, "alt_km": 760.86388063709, "timestamp": "2025-12-17T04:57:44.746442+00:00", "meta": {"OBJECT_NAME": "IRIDIUM 33 DEB", "OBJECT_ID": "1997-051DG", "EPOCH": "2025-12-16T23:37:09.206112", "MEAN_MOTION": 14.3481211, "ECCENTRICITY": 0.00821529, "INCLINATION": 86.2005, "RA_OF_ASC_NODE": 359.5351, "ARG_OF_PERICENTER": 348.3382, "MEAN_ANOMALY": 11.5908, "EPHEMERIS_TYPE": 0, "CLASSIFICATION_TYPE": "U", "NORAD_CAT_ID": 34097, "ELEMENT_SET_NO": 999, "REV_AT_EPOCH": 87180, "BSTAR": 0.0011716102, "MEAN_MOTION_DOT": 3.47e-05, "MEAN_MOTION_DDOT": 0}, "tle": {"line1": "1 34097U 97051DG  25350.98413433  .00003470  00000+0  11716-2 0  9996", "line2": "2 34097  86.2005 359.5351 0082152 348.3382  11.5908 14.34812110871809"}}, "geometry": {"type": "Point", "coordinates": [9.80256724862992, 69.72916446053692]}}, {"type": "Feature", "properties": {"norad_id": 34145, "name": "IRIDIUM 33 DEB", "group": "iridium-33-debris", "lat": 79.99675128432088, "lon": 128.470891232375, "alt_km": 706.0639531254292, "timestamp": "2025-12-17T04:57:44.746452+00:00", "meta": {"OBJECT_NAME": "IRIDIUM 33 DEB", "OBJECT_ID": "1997-051DY", "EPOCH": "2025-12-16T23:30:45.812160", "MEAN_MOTION": 14.42319443, "ECCENTRICITY": 0.00557597, "INCLINATION": 86.2113, "RA_OF_ASC_NODE": 330.6385, "ARG_OF_PERICENTER": 80.3876, "MEAN_ANOMALY": 280.3618, "EPHEMERIS_TYPE": 0, "CLASSIFICATION_TYPE": "U", "NORAD_CAT_ID": 34145, "ELEMENT_SET_NO": 999, "REV_AT_EPOCH": 87699, "BSTAR": 0.00087533026, "MEAN_MOTION_DOT": 2.964e-05, "MEAN_MOTION_DDOT": 0}, "tle": {"line1": "1 34145U 97051DY  25350.97969690  .00002964  00000+0  87533-3 0  9998", "line2": "2 34145  86.2113 330.6385 0055759  80.3876 280.3618 14.42319443876993"}}, "geometry": {"type": "Point", "coordinates": [128.470891232375, 79.99675128432088]}}, {"type": "Feature", "properties": {"norad_id": 34146, "name": "IRIDIUM 33 DEB", "group": "iridium-33-debris", "lat": -25.273765716426496, "lon": 169.58618895631892, "alt_km": 715.9334486476273, "timestamp": "2025-12-17T04:57:44.746461+00:00", "meta": {"OBJECT_NAME": "IRIDIUM 33 DEB", "OBJECT_ID": "1997-051DZ", "EPOCH": "2025-12-16T23:20:15.016128", "MEAN_MOTION": 14.49078294, "ECCENTRICITY": 0.00259227, "INCLINATION": 86.2833, "RA_OF_ASC_NODE": 347.931, "ARG_OF_PERICENTER": 206.7455, "MEAN_ANOMALY": 216.6138, "EPHEMERIS_TYPE": 0, "CLASSIFICATION_TYPE": "U", "NORAD_CAT_ID": 34146, "ELEMENT_SET_NO": 999, "REV_AT_EPOCH": 88168, "BSTAR": 0.00070211231, "MEAN_MOTION_DOT": 2.697e-05, "MEAN_MOTION_DDOT": 0}, "tle": {"line1": "1 34146U 97051DZ  25350.97239602  .00002697  00000+0  70211-3 0  9990", "line2": "2 34146  86.2833 347.9310 0025922 206.7455 216.6138 14.49078294881682"}}, "geometry": {"type": "Point", "coordinates": [169.58618895631892, -25.273765716426496]}}, {"type": "Feature", "properties": {"norad_id": 34159, "name": "IRIDIUM 33 DEB", "group": "iridium-33-debris", "lat": 69.35706013780178, "lon": -143.4177414801021, "alt_km": 774.3915019204651, "timestamp": "2025-12-17T04:57:44.746470+00:00", "meta": {"OBJECT_NAME": "IRIDIUM 33 DEB", "OBJECT_ID": "1997-051EN", "EPOCH": "2025-12-16T16:45:48.595104", "MEAN_MOTION": 14.385039, "ECCENTRICITY": 0.00259254, "INCLINATION": 86.3502, "RA_OF_ASC_NODE": 46.5535, "ARG_OF_PERICENTER": 273.7892, "MEAN_ANOMALY": 86.0342, "EPHEMERIS_TYPE": 0, "CLASSIFICATION_TYPE": "U", "NORAD_CAT_ID": 34159, "ELEMENT_SET_NO": 999, "REV_AT_EPOCH": 88016, "BSTAR": 0.00035210436, "MEAN_MOTION_DOT": 1.099e-05, "MEAN_MOTION_DDOT": 0}, "tle": {"line1": "1 34159U 97051EN  25350.69847911  .00001099  00000+0  35210-3 0  9996", "line2": "2 34159  86.3502  46.5535 0025925 273.7892  86.0342 14.38503900880166"}}, "geometry": {"type": "Point", "coordinates": [-143.4177414801021, 69.35706013780178]}}, {"type": "Feature", "properties": {"norad_id": 34350, "name": "IRIDIUM 33 DEB", "group": "iridium-33-debris", "lat": -69.7729921003373, "lon": -169.09203116482732, "alt_km": 758.3932275063189, "timestamp": "2025-12-17T04:57:44.746480+00:00", "meta": {"OBJECT_NAME": "IRIDIUM 33 DEB", "OBJECT_ID": "1997-051ES", "EPOCH": "2025-12-16T13:26:54.257280", "MEAN_MOTION": 14.45395902, "ECCENTRICITY": 0.00231296, "INCLINATION": 86.3273, "RA_OF_ASC_NODE": 1.1493, "ARG_OF_PERICENTER": 123.3706, "MEAN_ANOMALY": 5.0322, "EPHEMERIS_TYPE": 0, "CLASSIFICATION_TYPE": "U", "NORAD_CAT_ID": 34350, "ELEMENT_SET_NO": 999, "REV_AT_EPOCH": 88348, "BSTAR": 0.00030095479, "MEAN_MOTION_DOT": 1.082e-05, "MEAN_MOTION_DDOT": 0}, "tle": {"line1": "1 34350U 97051ES  25350.56035020  .00001082  00000+0  30095-3 0  9993", "line2": "2 34350  86.3273   1.1493 0023129 123.3706   5.0322 14.45395902883488"}}, "geometry": {"type": "Point", "coordinates": [-169.09203116482732, -69.7729921003373]}}, {"type": "Feature", "properties": {"norad_id": 34366, "name": "IRIDIUM 33 DEB", "group": "iridium-33-debris", "lat": -3.0348510412733387, "lon": 47.17822492862876, "alt_km": 725.7323922142559, "timestamp": "2025-12-17T04:57:44.746489+00:00", "meta": {"OBJECT_NAME": "IRIDIUM 33 DEB", "OBJECT_ID": "1997-051FJ", "EPOCH": "2025-12-16T04:27:03.913344", "MEAN_MOTION": 14.5408801, "ECCENTRICITY": 0.00226911, "INCLINATION": 86.3701, "RA_OF_ASC_NODE": 47.8151, "ARG_OF_PERICENTER": 128.8458, "MEAN_ANOMALY": 285.6209, "EPHEMERIS_TYPE": 0, "CLASSIFICATION_TYPE": "U", "NORAD_CAT_ID": 34366, "ELEMENT_SET_NO": 999, "REV_AT_EPOCH": 88232, "BSTAR": 0.00066965836, "MEAN_MOTION_DOT": 2.857e-05, "MEAN_MOTION_DDOT": 0}, "tle": {"line1": "1 34366U 97051FJ  25350.18546196  .00002857  00000+0  66966-3 0  9996", "line2": "2 34366  86.3701  47.8151 0022691 128.8458 285.6209 14.54088010882327"}}, "geometry": {"type": "Point", "coordinates": [47.17822492862876, -3.0348510412733387]}}]}